YOTSUBA-KULOVER         
1 65941U 98067XN  26065.22636982  .00207091  00000+0  11219-2 0  9996
2 65941  51.6209  75.2348 0005861  46.1481 314.0003 15.78891358 22957
E-KAGAKU-1              
1 65943U 98067XQ  26065.23011248  .00196047  00000+0  10780-2 0  9991
2 65943  51.6265  75.2812 0006177  48.1977 311.9551 15.78592973 22955
HRC MONOBLOCK CAMERA    
1 66052U 98067XR  26065.24551510  .00052707  00000+0  59947-3 0  9998
2 66052  51.6273  82.9098 0003542  76.4307 283.7081 15.61761494 21851
HTV-X1                  
1 66174U 25241A   26065.22200803  .00008136  00000+0  15844-3 0  9996
2 66174  51.6317  89.5003 0008136 162.2758 197.8515 15.48470661554476
SZ-21 MODULE            
1 66515U 25246C   26064.80716873  .00041310  00000+0  36032-3 0  9995
2 66515  41.4734 227.2544 0001427 292.1430  67.9260 15.68194204 17467
SHENZHOU-22             
1 66645U 25272A   26064.93979305  .00018582  00000+0  22289-3 0  9997
2 66645  41.4658 230.9734 0006880 250.1024 109.9073 15.60447182267520
SOYUZ-MS 28             
1 66664U 25275A   26065.22200803  .00008136  00000+0  15844-3 0  9997
2 66664  51.6317  89.5003 0008136 162.2758 197.8515 15.48470661554526
DUPLEX                  
1 66906U 98067XS  26065.24663383  .00030778  00000+0  44000-3 0  9996
2 66906  51.6285  86.6685 0002157  97.4902 262.6335 15.55952747 14597
ISS OBJECT XT           
1 66907U 98067XT  26065.27003484  .00153072  00000+0  13312-2 0  9994
2 66907  51.6248  83.0631 0004674  56.5604 303.5839 15.68035860 14642
ISS OBJECT XU           
1 66908U 98067XU  26065.33220126  .00152767  00000+0  13221-2 0  9995
2 66908  51.6249  82.7244 0004715  58.9313 301.2145 15.68155385 14650
SILVERSAT               
1 66909U 98067XV  26065.27564600  .00189452  00000+0  14661-2 0  9997
2 66909  51.6242  82.3461 0005530  54.5981 305.5533 15.70734240 14654
ISS OBJECT XW           
1 66910U 98067XW  26065.26358810  .00133096  00000+0  11875-2 0  9999
2 66910  51.6239  83.0117 0005027  65.9559 294.1963 15.67476946 14647
