CCSDS_OMM_VERS = 2.0
CREATION_DATE  = 
ORIGINATOR     = 

OBJECT_NAME    = YOTSUBA-KULOVER
OBJECT_ID      = 1998-067XN
CENTER_NAME    = EARTH
REF_FRAME      = TEME
TIME_SYSTEM    = UTC
MEAN_ELEMENT_THEORY = SGP/SGP4

EPOCH          = 2026-03-06T05:25:58.352448
MEAN_MOTION    = 15.78891358
ECCENTRICITY   = .0005861
INCLINATION    = 51.6209
RA_OF_ASC_NODE = 75.2348
ARG_OF_PERICENTER = 46.1481
MEAN_ANOMALY   = 314.0003

EPHEMERIS_TYPE = 0
CLASSIFICATION_TYPE = U
NORAD_CAT_ID   = 65941
ELEMENT_SET_NO = 999
REV_AT_EPOCH   = 2295
BSTAR          = .1121943E-2
MEAN_MOTION_DOT = .207091E-2
MEAN_MOTION_DDOT = 0

CCSDS_OMM_VERS = 2.0
CREATION_DATE  = 
ORIGINATOR     = 

OBJECT_NAME    = E-KAGAKU-1
OBJECT_ID      = 1998-067XQ
CENTER_NAME    = EARTH
REF_FRAME      = TEME
TIME_SYSTEM    = UTC
MEAN_ELEMENT_THEORY = SGP/SGP4

EPOCH          = 2026-03-06T05:31:21.718272
MEAN_MOTION    = 15.78592973
ECCENTRICITY   = .00061773
INCLINATION    = 51.6265
RA_OF_ASC_NODE = 75.2812
ARG_OF_PERICENTER = 48.1977
MEAN_ANOMALY   = 311.9551

EPHEMERIS_TYPE = 0
CLASSIFICATION_TYPE = U
NORAD_CAT_ID   = 65943
ELEMENT_SET_NO = 999
REV_AT_EPOCH   = 2295
BSTAR          = .10779581E-2
MEAN_MOTION_DOT = .196047E-2
MEAN_MOTION_DDOT = 0

CCSDS_OMM_VERS = 2.0
CREATION_DATE  = 
ORIGINATOR     = 

OBJECT_NAME    = HRC MONOBLOCK CAMERA
OBJECT_ID      = 1998-067XR
CENTER_NAME    = EARTH
REF_FRAME      = TEME
TIME_SYSTEM    = UTC
MEAN_ELEMENT_THEORY = SGP/SGP4

EPOCH          = 2026-03-06T05:53:32.504640
MEAN_MOTION    = 15.61761494
ECCENTRICITY   = .00035427
INCLINATION    = 51.6273
RA_OF_ASC_NODE = 82.9098
ARG_OF_PERICENTER = 76.4307
MEAN_ANOMALY   = 283.7081

EPHEMERIS_TYPE = 0
CLASSIFICATION_TYPE = U
NORAD_CAT_ID   = 66052
ELEMENT_SET_NO = 999
REV_AT_EPOCH   = 2185
BSTAR          = .59946723E-3
MEAN_MOTION_DOT = .52707E-3
MEAN_MOTION_DDOT = 0

CCSDS_OMM_VERS = 2.0
CREATION_DATE  = 
ORIGINATOR     = 

OBJECT_NAME    = HTV-X1
OBJECT_ID      = 2025-241A
CENTER_NAME    = EARTH
REF_FRAME      = TEME
TIME_SYSTEM    = UTC
MEAN_ELEMENT_THEORY = SGP/SGP4

EPOCH          = 2026-03-06T05:19:41.493792
MEAN_MOTION    = 15.48470661
ECCENTRICITY   = .00081363
INCLINATION    = 51.6317
RA_OF_ASC_NODE = 89.5003
ARG_OF_PERICENTER = 162.2758
MEAN_ANOMALY   = 197.8515

EPHEMERIS_TYPE = 0
CLASSIFICATION_TYPE = U
NORAD_CAT_ID   = 66174
ELEMENT_SET_NO = 999
REV_AT_EPOCH   = 55447
BSTAR          = .15844115E-3
MEAN_MOTION_DOT = .8136E-4
MEAN_MOTION_DDOT = 0

CCSDS_OMM_VERS = 2.0
CREATION_DATE  = 
ORIGINATOR     = 

OBJECT_NAME    = SZ-21 MODULE
OBJECT_ID      = 2025-246C
CENTER_NAME    = EARTH
REF_FRAME      = TEME
TIME_SYSTEM    = UTC
MEAN_ELEMENT_THEORY = SGP/SGP4

EPOCH          = 2026-03-05T19:22:19.378272
MEAN_MOTION    = 15.68194204
ECCENTRICITY   = .00014276
INCLINATION    = 41.4734
RA_OF_ASC_NODE = 227.2544
ARG_OF_PERICENTER = 292.1430
MEAN_ANOMALY   = 67.9260

EPHEMERIS_TYPE = 0
CLASSIFICATION_TYPE = U
NORAD_CAT_ID   = 66515
ELEMENT_SET_NO = 999
REV_AT_EPOCH   = 1746
BSTAR          = .36031689E-3
MEAN_MOTION_DOT = .4131E-3
MEAN_MOTION_DDOT = 0

CCSDS_OMM_VERS = 2.0
CREATION_DATE  = 
ORIGINATOR     = 

OBJECT_NAME    = SHENZHOU-22
OBJECT_ID      = 2025-272A
CENTER_NAME    = EARTH
REF_FRAME      = TEME
TIME_SYSTEM    = UTC
MEAN_ELEMENT_THEORY = SGP/SGP4

EPOCH          = 2026-03-05T22:33:18.119520
MEAN_MOTION    = 15.60447182
ECCENTRICITY   = .00068802
INCLINATION    = 41.4658
RA_OF_ASC_NODE = 230.9734
ARG_OF_PERICENTER = 250.1024
MEAN_ANOMALY   = 109.9073

EPHEMERIS_TYPE = 0
CLASSIFICATION_TYPE = U
NORAD_CAT_ID   = 66645
ELEMENT_SET_NO = 999
REV_AT_EPOCH   = 26752
BSTAR          = .22289437E-3
MEAN_MOTION_DOT = .18582E-3
MEAN_MOTION_DDOT = 0

CCSDS_OMM_VERS = 2.0
CREATION_DATE  = 
ORIGINATOR     = 

OBJECT_NAME    = SOYUZ-MS 28
OBJECT_ID      = 2025-275A
CENTER_NAME    = EARTH
REF_FRAME      = TEME
TIME_SYSTEM    = UTC
MEAN_ELEMENT_THEORY = SGP/SGP4

EPOCH          = 2026-03-06T05:19:41.493792
MEAN_MOTION    = 15.48470661
ECCENTRICITY   = .00081363
INCLINATION    = 51.6317
RA_OF_ASC_NODE = 89.5003
ARG_OF_PERICENTER = 162.2758
MEAN_ANOMALY   = 197.8515

EPHEMERIS_TYPE = 0
CLASSIFICATION_TYPE = U
NORAD_CAT_ID   = 66664
ELEMENT_SET_NO = 999
REV_AT_EPOCH   = 55452
BSTAR          = .15844115E-3
MEAN_MOTION_DOT = .8136E-4
MEAN_MOTION_DDOT = 0

CCSDS_OMM_VERS = 2.0
CREATION_DATE  = 
ORIGINATOR     = 

OBJECT_NAME    = DUPLEX
OBJECT_ID      = 1998-067XS
CENTER_NAME    = EARTH
REF_FRAME      = TEME
TIME_SYSTEM    = UTC
MEAN_ELEMENT_THEORY = SGP/SGP4

EPOCH          = 2026-03-06T05:55:09.162912
MEAN_MOTION    = 15.55952747
ECCENTRICITY   = .00021576
INCLINATION    = 51.6285
RA_OF_ASC_NODE = 86.6685
ARG_OF_PERICENTER = 97.4902
MEAN_ANOMALY   = 262.6335

EPHEMERIS_TYPE = 0
CLASSIFICATION_TYPE = U
NORAD_CAT_ID   = 66906
ELEMENT_SET_NO = 999
REV_AT_EPOCH   = 1459
BSTAR          = .44000497E-3
MEAN_MOTION_DOT = .30778E-3
MEAN_MOTION_DDOT = 0

CCSDS_OMM_VERS = 2.0
CREATION_DATE  = 
ORIGINATOR     = 

OBJECT_NAME    = ISS OBJECT XT
OBJECT_ID      = 1998-067XT
CENTER_NAME    = EARTH
REF_FRAME      = TEME
TIME_SYSTEM    = UTC
MEAN_ELEMENT_THEORY = SGP/SGP4

EPOCH          = 2026-03-06T06:28:51.010176
MEAN_MOTION    = 15.68035860
ECCENTRICITY   = .00046743
INCLINATION    = 51.6248
RA_OF_ASC_NODE = 83.0631
ARG_OF_PERICENTER = 56.5604
MEAN_ANOMALY   = 303.5839

EPHEMERIS_TYPE = 0
CLASSIFICATION_TYPE = U
NORAD_CAT_ID   = 66907
ELEMENT_SET_NO = 999
REV_AT_EPOCH   = 1464
BSTAR          = .1331197E-2
MEAN_MOTION_DOT = .153072E-2
MEAN_MOTION_DDOT = 0

CCSDS_OMM_VERS = 2.0
CREATION_DATE  = 
ORIGINATOR     = 

OBJECT_NAME    = ISS OBJECT XU
OBJECT_ID      = 1998-067XU
CENTER_NAME    = EARTH
REF_FRAME      = TEME
TIME_SYSTEM    = UTC
MEAN_ELEMENT_THEORY = SGP/SGP4

EPOCH          = 2026-03-06T07:58:22.188864
MEAN_MOTION    = 15.68155385
ECCENTRICITY   = .0004715
INCLINATION    = 51.6249
RA_OF_ASC_NODE = 82.7244
ARG_OF_PERICENTER = 58.9313
MEAN_ANOMALY   = 301.2145

EPHEMERIS_TYPE = 0
CLASSIFICATION_TYPE = U
NORAD_CAT_ID   = 66908
ELEMENT_SET_NO = 999
REV_AT_EPOCH   = 1465
BSTAR          = .13221278E-2
MEAN_MOTION_DOT = .152767E-2
MEAN_MOTION_DDOT = 0

CCSDS_OMM_VERS = 2.0
CREATION_DATE  = 
ORIGINATOR     = 

OBJECT_NAME    = SILVERSAT
OBJECT_ID      = 1998-067XV
CENTER_NAME    = EARTH
REF_FRAME      = TEME
TIME_SYSTEM    = UTC
MEAN_ELEMENT_THEORY = SGP/SGP4

EPOCH          = 2026-03-06T06:36:55.814400
MEAN_MOTION    = 15.70734240
ECCENTRICITY   = .00055309
INCLINATION    = 51.6242
RA_OF_ASC_NODE = 82.3461
ARG_OF_PERICENTER = 54.5981
MEAN_ANOMALY   = 305.5533

EPHEMERIS_TYPE = 0
CLASSIFICATION_TYPE = U
NORAD_CAT_ID   = 66909
ELEMENT_SET_NO = 999
REV_AT_EPOCH   = 1465
BSTAR          = .14660588E-2
MEAN_MOTION_DOT = .189452E-2
MEAN_MOTION_DDOT = 0

CCSDS_OMM_VERS = 2.0
CREATION_DATE  = 
ORIGINATOR     = 

OBJECT_NAME    = ISS OBJECT XW
OBJECT_ID      = 1998-067XW
CENTER_NAME    = EARTH
REF_FRAME      = TEME
TIME_SYSTEM    = UTC
MEAN_ELEMENT_THEORY = SGP/SGP4

EPOCH          = 2026-03-06T06:19:34.011840
MEAN_MOTION    = 15.67476946
ECCENTRICITY   = .00050274
INCLINATION    = 51.6239
RA_OF_ASC_NODE = 83.0117
ARG_OF_PERICENTER = 65.9559
MEAN_ANOMALY   = 294.1963

EPHEMERIS_TYPE = 0
CLASSIFICATION_TYPE = U
NORAD_CAT_ID   = 66910
ELEMENT_SET_NO = 999
REV_AT_EPOCH   = 1464
BSTAR          = .11875448E-2
MEAN_MOTION_DOT = .133096E-2
MEAN_MOTION_DDOT = 0

